OBJECT_NAME,OBJECT_ID,EPOCH,MEAN_MOTION,ECCENTRICITY,INCLINATION,RA_OF_ASC_NODE,ARG_OF_PERICENTER,MEAN_ANOMALY,EPHEMERIS_TYPE,CLASSIFICATION_TYPE,NORAD_CAT_ID,ELEMENT_SET_NO,REV_AT_EPOCH,BSTAR,MEAN_MOTION_DOT,MEAN_MOTION_DDOT
CUBEBUG-2 (LO-74),2013-066AA,2026-06-16T03:00:32.772384,14.93754109,.0058456,97.8908,116.0990,32.4816,327.9979,0,U,39440,999,67683,.37024E-3,.3994E-4,0
FUNCUBE-1 (AO-73),2013-066AE,2026-06-16T04:40:29.138016,15.09480360,.003556,97.8274,138.6199,204.3953,155.5593,0,U,39444,999,67951,.35517E-3,.5705E-4,0
UWE-3,2013-066AG,2026-06-15T09:51:46.833408,14.97011844,.00478551,97.8693,122.4726,327.0614,32.7628,0,U,39446,999,67731,.31228687E-3,.3615E-4,0
UNISAT-6,2014-033C,2026-06-16T02:59:40.602336,14.88241963,.0046284,97.7876,319.8552,72.7230,287.9044,0,U,40012,999,64600,.24893E-3,.2287E-4,0
DUCHIFAT-1,2014-033M,2026-06-15T10:08:30.060960,15.64281009,.000328,98.0462,225.3358,119.3803,240.7782,0,U,40021,999,65547,.90896671E-3,.87303E-3,0
QB50P1,2014-033R,2026-06-16T00:42:42.909120,15.18246824,.0007722,98.0960,178.0944,219.7283,140.3385,0,U,40025,999,65285,.34143E-3,.6921E-4,0
LILACSAT-2,2015-049K,2026-06-16T04:13:07.400640,15.51417312,.0005451,97.4642,203.9789,249.7516,110.3150,0,U,40908,999,59559,.24489E-3,.14344E-3,0
FOX-1A (AO-85),2015-058D,2026-06-15T17:49:35.014368,14.90963979,.01303689,64.7762,283.4725,57.1508,304.2075,0,U,40967,999,11335,.19289249E-3,.2067E-4,0
CAS-2T & KS-1Q,2016-066G,2026-06-16T04:50:27.625632,14.44691734,.0342753,98.3821,242.9493,132.4604,230.6111,0,U,41847,999,50465,.22417E-3,.155E-4,0
RADFXSAT (FOX-1B),2017-073E,2026-06-16T03:35:28.061376,15.12705652,.0149692,97.4703,34.3858,332.8831,26.4636,0,U,43017,999,46523,.28659E-3,.6534E-4,0
DIWATA-2B,2018-084H,2026-06-16T04:04:09.779232,15.00447535,.001242,98.1174,3.3336,173.3850,186.7539,0,U,43678,999,41606,.16225E-3,.1978E-4,0
ES'HAIL 2,2018-090A,2026-06-16T02:52:15.491136,1.00270088,.0001594,0.0173,5.4784,118.9306,208.8329,0,U,43700,999,2766,0,.144E-5,0
FOX-1CLIFF (AO-95),2018-099N,2026-06-16T03:50:31.604064,15.26694491,.0008085,97.4381,227.4098,1.8957,358.2311,0,U,43770,999,41306,.34028E-3,.8871E-4,0
ITASAT,2018-099AE,2026-06-16T02:23:13.122816,15.19046010,.0012212,97.4027,218.6326,4.0961,356.0371,0,U,43786,999,41274,.28803E-3,.5979E-4,0
JY1SAT (JO-97),2018-099AX,2026-06-16T02:48:33.228000,15.33625681,.0004293,97.4130,229.9474,267.4350,92.6401,0,U,43803,999,41346,.4435E-3,.14353E-3,0
UWE-4,2018-111E,2026-06-16T01:12:12.489984,15.46065532,.0005718,97.5856,95.3888,347.9262,12.1848,0,U,43880,999,41060,.53861E-3,.26306E-3,0
TIANYAN 01,2019-093C,2026-06-16T05:41:16.786176,14.86520914,.0015129,97.7539,239.4920,89.7641,270.5308,0,U,44881,999,35127,.15307E-3,.1304E-4,0
RS-44 & BREEZE-KM R/B,2019-096E,2026-06-15T23:43:55.351776,12.79748869,.0218114,82.5218,340.5014,146.9585,214.5365,0,U,44909,999,30219,-.34612E-5,.12E-6,0
SALSAT,2020-068K,2026-06-15T23:14:07.134432,15.29785415,.0008114,97.8844,169.9584,313.3675,46.6887,0,U,46495,999,31517,.23912E-3,.682E-4,0
XW-3 (CAS-9),2021-131B,2026-06-16T05:19:04.598400,14.41356734,.0005382,98.4988,259.6162,99.2852,260.8946,0,U,50466,999,23497,.13817E-3,.403E-5,0
GREENCUBE (IO-117),2022-080E,2026-06-13T07:02:28.697280,6.42583230,.00089108,70.1444,299.5995,290.4576,69.5127,0,U,53109,999,9181,0,-.3E-7,0
UMKA 1 (RS40S),2023-091G,2026-06-16T04:08:47.404032,15.20809213,.001422,97.5050,225.8738,120.8032,239.4605,0,U,57172,999,16385,.25677E-3,.5607E-4,0
CUBESX-HSE 3 (RS42S),2023-091N,2026-06-16T04:38:46.290048,15.31195306,.0012044,97.5094,232.7681,97.8713,262.3895,0,U,57178,999,16427,.39383E-3,.11819E-3,0
MONITOR-3 (RS58S),2023-091Q,2026-06-16T03:36:34.115040,15.27825224,.001311,97.5085,230.5887,103.9461,256.3237,0,U,57180,999,16413,.32694E-3,.8831E-4,0
MONITOR-4 (RS57S),2023-091S,2026-06-16T03:06:29.664000,15.27909840,.0013109,97.5079,230.5388,104.4081,255.8614,0,U,57182,999,16413,.33759E-3,.9145E-4,0
MONITOR-2 (RS39S),2023-091U,2026-06-16T04:37:33.726144,15.18902958,.0012708,97.5073,225.4820,114.0890,246.1675,0,U,57184,999,16380,.20855E-3,.4291E-4,0
SVYATOBOR 1 (RS60S),2023-091X,2026-06-16T03:24:02.454048,15.26600403,.0010884,97.5091,230.9529,97.4739,262.7736,0,U,57187,999,16415,.28477E-3,.7394E-4,0
VIZARD-METEO (RS38S),2023-091Z,2026-06-16T04:05:25.271232,15.35999895,.0008326,97.5095,236.6348,80.8152,279.4033,0,U,57189,999,16453,.39377E-3,.13743E-3,0
POLYTECH-UNIVERSE 3 (RS46S),2023-091AB,2026-06-16T03:42:04.163904,15.19105348,.0016798,97.5048,224.9483,130.1004,230.1706,0,U,57191,999,16379,.21109E-3,.4377E-4,0
UTMN 2 (RS27S),2023-091AP,2026-06-16T03:30:49.468032,15.32031789,.0009311,97.5090,234.3528,86.9005,273.3302,0,U,57203,999,16438,.37127E-3,.11422E-3,0
